{
    "links": {
        "self": "http://www.neowsapp.com/rest/v1/neo/3693238?api_key=iIulBulltgU6a56xZRHN4H3l9WmuAYTsLGpBGhQ2"
    },
    "id": "3693238",
    "neo_reference_id": "3693238",
    "name": "(2014 TO35)",
    "designation": "2014 TO35",
    "nasa_jpl_url": "http://ssd.jpl.nasa.gov/sbdb.cgi?sstr=3693238",
    "absolute_magnitude_h": 24.5,
    "estimated_diameter": {
        "kilometers": {
            "estimated_diameter_min": 0.0334622374,
            "estimated_diameter_max": 0.0748238376
        },
        "meters": {
            "estimated_diameter_min": 33.4622374455,
            "estimated_diameter_max": 74.8238376074
        },
        "miles": {
            "estimated_diameter_min": 0.0207924639,
            "estimated_diameter_max": 0.0464933628
        },
        "feet": {
            "estimated_diameter_min": 109.7842471007,
            "estimated_diameter_max": 245.4850393757
        }
    },
    "is_potentially_hazardous_asteroid": false,
    "close_approach_data": [
        {
            "close_approach_date": "2007-11-24",
            "close_approach_date_full": "2007-Nov-24 15:38",
            "epoch_date_close_approach": 1195918680000,
            "relative_velocity": {
                "kilometers_per_second": "16.5812658852",
                "kilometers_per_hour": "59692.5571867078",
                "miles_per_hour": "37090.6336585963"
            },
            "miss_distance": {
                "astronomical": "0.3451811755",
                "lunar": "134.2754772695",
                "kilometers": "51638368.618896185",
                "miles": "32086594.384629953"
            },
            "orbiting_body": "Earth"
        },
        {
            "close_approach_date": "2014-10-08",
            "close_approach_date_full": "2014-Oct-08 19:47",
            "epoch_date_close_approach": 1412797620000,
            "relative_velocity": {
                "kilometers_per_second": "6.5408695288",
                "kilometers_per_hour": "23547.1303036418",
                "miles_per_hour": "14631.271048949"
            },
            "miss_distance": {
                "astronomical": "0.0434567912",
                "lunar": "16.9046917768",
                "kilometers": "6501043.400554744",
                "miles": "4039561.0521697072"
            },
            "orbiting_body": "Earth"
        },
        {
            "close_approach_date": "2021-08-19",
            "close_approach_date_full": "2021-Aug-19 21:58",
            "epoch_date_close_approach": 1629410280000,
            "relative_velocity": {
                "kilometers_per_second": "18.303780603",
                "kilometers_per_hour": "65893.6101706297",
                "miles_per_hour": "40943.7268307449"
            },
            "miss_distance": {
                "astronomical": "0.3892354692",
                "lunar": "151.4125975188",
                "kilometers": "58228797.120770604",
                "miles": "36181696.7632741752"
            },
            "orbiting_body": "Earth"
        }
    ],
    "orbital_data": {
        "orbit_id": "14",
        "orbit_determination_date": "2017-12-13 06:20:18",
        "first_observation_date": "2014-10-13",
        "last_observation_date": "2014-11-26",
        "data_arc_in_days": 44,
        "observations_used": 81,
        "orbit_uncertainty": "7",
        "minimum_orbit_intersection": ".0361369",
        "jupiter_tisserand_invariant": "3.383",
        "epoch_osculation": "2459000.5",
        "eccentricity": ".5483198858765198",
        "semi_major_axis": "2.288469813404726",
        "inclination": "1.556273564166399",
        "ascending_node_longitude": "12.7092811841912",
        "orbital_period": "1264.492358179571",
        "perihelion_distance": "1.033656306486786",
        "perihelion_argument": "6.744272113743548",
        "aphelion_distance": "3.543283320322667",
        "perihelion_time": "2459474.689873106480",
        "mean_anomaly": "224.9985085207683",
        "mean_motion": ".2846992294348658",
        "equinox": "J2000",
        "orbit_class": {
            "orbit_class_type": "AMO",
            "orbit_class_description": "Near-Earth asteroid orbits similar to that of 1221 Amor",
            "orbit_class_range": "1.017 AU < q (perihelion) < 1.3 AU"
        }
    },
    "is_sentry_object": false
}